NORAD_CAT_ID,OBJECT_NAME,OBJECT_TYPE,EPOCH,MEAN_MOTION,ECCENTRICITY,INCLINATION,RA_OF_ASC_NODE,ARG_OF_PERICENTER,MEAN_ANOMALY,BSTAR,MEAN_MOTION_DOT,MEAN_MOTION_DDOT,TLE_LINE0,TLE_LINE1,TLE_LINE2,SEMIMAJOR_AXIS,PERIOD,APOGEE,PERIGEE,DECAYED
54788.0,STARLINK-5399,PAYLOAD,2023-03-15 20:33:33,15.0884734,0.0001324,53.2157,241.4311,93.7226,266.3918,0.00016587,2.353e-05,0.0,0 STARLINK-5399,1 54788U 22175AG  23074.85664246  .00002353  00000-0  16587-3 0  9999,2 54788  53.2157 241.4311 0001324  93.7226 266.3918 15.08847340 15609,6917.858,95.437,540.639,538.807,0.0
54788.0,STARLINK-5399,PAYLOAD,2023-03-16 04:30:30,15.0883683,0.0001648,53.2134,239.9441,78.9383,281.1795,-2.6472e-05,-7.09e-06,0.0,0 STARLINK-5399,1 54788U 22175AG  23075.18785540 -.00000709  00000-0 -26472-4 0  9997,2 54788  53.2134 239.9441 0001648  78.9383 281.1795 15.08836830 13493,6917.89,95.438,540.895,538.615,0.0
54788.0,STARLINK-5399,PAYLOAD,2023-03-16 20:24:22,15.08838859,0.0001261,53.2186,236.9707,85.7075,274.4062,-9.745e-05,-1.838e-05,0.0,0 STARLINK-5399,1 54788U 22175AG  23075.85025797 -.00001838  00000-0 -97450-4 0  9990,2 54788  53.2186 236.9707 0001261  85.7075 274.4062 15.08838859 15753,6917.884,95.438,540.621,538.877,0.0
54788.0,STARLINK-5399,PAYLOAD,2023-03-17 10:42:50,15.08834167,0.0001248,53.2186,234.2945,86.7992,273.3143,5.6337e-05,6.09e-06,0.0,0 STARLINK-5399,1 54788U 22175AG  23076.44641926  .00000609  00000-0  56337-4 0  9996,2 54788  53.2186 234.2945 0001248  86.7992 273.3143 15.08834167 13688,6917.898,95.438,540.627,538.9,0.0
54788.0,STARLINK-5399,PAYLOAD,2023-03-17 20:15:09,15.08826667,0.0001851,53.2174,232.5125,82.4326,277.6876,0.00035816,5.415e-05,0.0,0 STARLINK-5399,1 54788U 22175AG  23076.84385512  .00005415  00000-0  35816-3 0  9994,2 54788  53.2174 232.5125 0001851  82.4326 277.6876 15.08826667 15903,6917.921,95.438,541.067,538.506,0.0
54788.0,STARLINK-5399,PAYLOAD,2023-03-18 13:44:24,15.08831374,0.0001416,53.2186,229.2401,78.8085,281.3067,0.00016865,2.397e-05,0.0,0 STARLINK-5399,1 54788U 22175AG  23077.57250152  .00002397  00000-0  16865-3 0  9995,2 54788  53.2186 229.2401 0001416  78.8085 281.3067 15.08831374 13851,6917.907,95.438,540.751,538.792,0.0
54788.0,STARLINK-5399,PAYLOAD,2023-03-18 20:05:55,15.08847797,0.0001402,53.2182,228.0509,80.3925,279.7225,0.00024999,3.694e-05,0.0,0 STARLINK-5399,1 54788U 22175AG  23077.83745095  .00003694  00000-0  24999-3 0  9997,2 54788  53.2182 228.0509 0001402  80.3925 279.7225 15.08847797 13896,6917.857,95.437,540.691,538.752,0.0
54788.0,STARLINK-5399,PAYLOAD,2023-03-19 02:27:29,15.08835464,0.0001809,53.2173,226.861,83.2493,276.8704,2.5969e-05,1.25e-06,0.0,0 STARLINK-5399,1 54788U 22175AG  23078.10242135  .00000125  00000-0  25969-4 0  9990,2 54788  53.2173 226.8610 0001809  83.2493 276.8704 15.08835464 13931,6917.894,95.438,541.011,538.508,0.0
54788.0,STARLINK-5399,PAYLOAD,2023-03-19 13:35:10,15.08842363,0.000122,53.2182,224.7777,85.9548,274.1583,-7.3404e-05,-1.456e-05,0.0,0 STARLINK-5399,1 54788U 22175AG  23078.56609471 -.00001456  00000-0 -73404-4 0  9997,2 54788  53.2182 224.7777 0001220  85.9548 274.1583 15.08842363 16169,6917.873,95.437,540.582,538.894,0.0
54788.0,STARLINK-5399,PAYLOAD,2023-03-19 18:21:19,15.08849651,0.0001325,53.2163,223.8889,86.905,273.2094,7.7363e-05,9.44e-06,0.0,0 STARLINK-5399,1 54788U 22175AG  23078.76481125  .00000944  00000-0  77363-4 0  9990,2 54788  53.2163 223.8889 0001325  86.9050 273.2094 15.08849651 14035,6917.851,95.437,540.633,538.799,0.0
54788.0,STARLINK-5399,PAYLOAD,2023-03-20 13:25:58,15.08837022,0.0001548,53.2182,220.3204,86.1937,273.9232,-0.00010387,-1.941e-05,0.0,0 STARLINK-5399,1 54788U 22175AG  23079.55969951 -.00001941  00000-0 -10387-3 0  9998,2 54788  53.2182 220.3204 0001548  86.1937 273.9232 15.08837022 14155,6917.889,95.438,540.825,538.684,0.0
54788.0,STARLINK-5399,PAYLOAD,2023-03-20 16:36:44,15.08842094,0.0001414,53.2185,219.7265,87.16,272.9554,-1.4589e-05,-5.2e-06,0.0,0 STARLINK-5399,1 54788U 22175AG  23079.69217695 -.00000520  00000-0 -14589-4 0  9995,2 54788  53.2185 219.7265 0001414  87.1600 272.9554 15.08842094 16330,6917.874,95.437,540.717,538.761,0.0
54788.0,STARLINK-5399,PAYLOAD,2023-03-21 08:30:35,15.08839886,0.0001224,53.2167,216.7503,72.7162,287.3964,0.00014079,1.954e-05,0.0,0 STARLINK-5399,1 54788U 22175AG  23080.35457808  .00001954  00000-0  14079-3 0  9995,2 54788  53.2167 216.7503 0001224  72.7162 287.3964 15.08839886 16435,6917.881,95.438,540.592,538.899,0.0
54788.0,STARLINK-5399,PAYLOAD,2023-03-21 13:16:44,15.08846719,0.0001392,53.2171,215.8593,76.7569,283.3579,0.00024271,3.578e-05,0.0,0 STARLINK-5399,1 54788U 22175AG  23080.55329580  .00003578  00000-0  24271-3 0  9991,2 54788  53.2171 215.8593 0001392  76.7569 283.3579 15.08846719 14305,6917.86,95.437,540.688,538.762,0.0
54788.0,STARLINK-5399,PAYLOAD,2023-03-22 11:32:08,15.08839531,0.0001115,53.2164,211.6953,63.6277,296.4829,0.00011301,1.511e-05,0.0,0 STARLINK-5399,1 54788U 22175AG  23081.48065768  .00001511  00000-0  11301-3 0  9994,2 54788  53.2164 211.6953 0001115  63.6277 296.4829 15.08839531 14447,6917.882,95.438,540.518,538.975,0.0
54788.0,STARLINK-5399,PAYLOAD,2023-03-22 17:53:40,15.08851627,0.0001335,53.2174,210.5054,84.1051,276.0094,0.00021468,3.131e-05,0.0,0 STARLINK-5399,1 54788U 22175AG  23081.74561184  .00003131  00000-0  21468-3 0  9991,2 54788  53.2174 210.5054 0001335  84.1051 276.0094 15.08851627 14482,6917.845,95.437,540.633,538.786,0.0
54788.0,STARLINK-5399,PAYLOAD,2023-03-23 01:50:37,15.08839524,0.0001335,53.2175,209.0203,80.3991,279.7152,2.2135e-05,6.4e-07,0.0,0 STARLINK-5399,1 54788U 22175AG  23082.07681720  .00000064  00000-0  22135-4 0  9992,2 54788  53.2175 209.0203 0001335  80.3991 279.7152 15.08839524 14536,6917.882,95.438,540.67,538.823,0.0
54788.0,STARLINK-5399,PAYLOAD,2023-03-23 14:33:42,15.08839382,0.0001827,53.218,206.6444,80.2113,279.9086,7.3911e-05,8.88e-06,0.0,0 STARLINK-5399,1 54788U 22175AG  23082.60674083  .00000888  00000-0  73911-4 0  9997,2 54788  53.2180 206.6444 0001827  80.2113 279.9086 15.08839382 16771,6917.882,95.438,541.011,538.483,0.0
54788.0,STARLINK-5399,PAYLOAD,2023-03-24 01:41:23,15.08859782,0.0001612,53.2192,204.5566,114.9605,245.1555,0.00023273,3.42e-05,0.0,0 STARLINK-5399,1 54788U 22175AG  23083.07040681  .00003420  00000-0  23273-3 0  9990,2 54788  53.2192 204.5566 0001612 114.9605 245.1555 15.08859782 14689,6917.82,95.436,540.8,538.57,0.0
54788.0,STARLINK-5399,PAYLOAD,2023-03-24 12:49:03,15.0888154,0.0001401,53.218,202.4784,88.4543,271.661,0.00052753,8.127e-05,0.0,0 STARLINK-5399,1 54788U 22175AG  23083.53406948  .00008127  00000-0  52753-3 0  9997,2 54788  53.2180 202.4784 0001401  88.4543 271.6610 15.08881540 14758,6917.753,95.435,540.588,538.649,0.0
54788.0,STARLINK-5399,PAYLOAD,2023-03-24 14:24:25,15.08894657,0.0001795,53.2185,202.1814,126.3462,233.7696,0.00067416,0.00010473,0.0,0 STARLINK-5399,1 54788U 22175AG  23083.60029779  .00010473  00000-0  67416-3 0  9997,2 54788  53.2185 202.1814 0001795 126.3462 233.7696 15.08894657 14769,6917.713,95.434,540.82,538.337,0.0
54788.0,STARLINK-5399,PAYLOAD,2023-03-24 19:10:34,15.08913941,0.0001026,53.2169,201.2887,101.2689,258.8418,0.0011118,0.00017486,0.0,0 STARLINK-5399,1 54788U 22175AG  23083.79900846  .00017486  00000-0  11118-2 0  9998,2 54788  53.2169 201.2887 0001026 101.2689 258.8418 15.08913941 16952,6917.654,95.433,540.229,538.81,0.0
54788.0,STARLINK-5399,PAYLOAD,2023-03-25 12:39:55,15.08757132,0.000126,53.2168,198.0184,87.9201,272.1935,-0.001506,-0.00024121,0.0,0 STARLINK-5399,1 54788U 22175AG  23084.52772604 -.00024121  00000-0 -15060-2 0  9995,2 54788  53.2168 198.0184 0001260  87.9201 272.1935 15.08757132 14908,6918.134,95.443,540.87,539.127,0.0
54788.0,STARLINK-5399,PAYLOAD,2023-03-25 17:26:06,15.08725921,0.0001093,53.2183,197.1242,112.4536,247.6572,-0.0021921,-0.00034897,0.0,0 STARLINK-5399,1 54788U 22175AG  23084.72645959 -.00034897  00000-0 -21921-2 0  9993,2 54788  53.2183 197.1242 0001093 112.4536 247.6572 15.08725921 14937,6918.229,95.445,540.85,539.338,0.0
54788.0,STARLINK-5399,PAYLOAD,2023-03-26 12:30:43,15.08832783,0.0001667,53.2178,193.5584,91.5013,268.617,0.0021009,0.000333,0.0,0 STARLINK-5399,1 54788U 22175AG  23085.52133990  .00033300  00000-0  21009-2 0  9992,2 54788  53.2178 193.5584 0001667  91.5013 268.6170 15.08832783 15050,6917.902,95.438,540.921,538.614,0.0
54788.0,STARLINK-5399,PAYLOAD,2023-03-26 18:52:15,15.08845626,0.000169,53.2168,192.3634,111.3112,248.8061,0.0025495,0.00040527,0.0,0 STARLINK-5399,1 54788U 22175AG  23085.78629618  .00040527  00000-0  25495-2 0  9999,2 54788  53.2168 192.3634 0001690 111.3112 248.8061 15.08845626 17252,6917.863,95.437,540.897,538.559,0.0
54788.0,STARLINK-5399,PAYLOAD,2023-03-26 23:38:25,15.0883241,0.0001518,53.2174,191.4754,89.745,270.3716,0.0015893,0.00025091,0.0,0 STARLINK-5399,1 54788U 22175AG  23085.98502123  .00025091  00000-0  15893-2 0  9992,2 54788  53.2174 191.4754 0001518  89.7450 270.3716 15.08832410 15122,6917.904,95.438,540.819,538.718,0.0
54788.0,STARLINK-5399,PAYLOAD,2023-03-27 10:46:06,15.08860853,0.0001024,53.2169,189.3932,96.0009,264.11,0.0010481,0.00016441,0.0,0 STARLINK-5399,1 54788U 22175AG  23086.44868459  .00016441  00000-0  10481-2 0  9998,2 54788  53.2169 189.3932 0001024  96.0009 264.1100 15.08860853 15190,6917.817,95.436,540.39,538.973,0.0
54788.0,STARLINK-5399,PAYLOAD,2023-03-27 13:56:51,15.08884419,0.0001462,53.2167,188.7981,78.2075,281.9081,0.00048178,7.397e-05,0.0,0 STARLINK-5399,1 54788U 22175AG  23086.58115359  .00007397  00000-0  48178-3 0  9992,2 54788  53.2167 188.7981 0001462  78.2075 281.9081 15.08884419 17377,6917.745,95.435,540.621,538.598,0.0
54788.0,STARLINK-5399,PAYLOAD,2023-03-27 15:32:14,15.08890737,0.0001576,53.2183,188.5047,98.8762,261.2408,0.00078705,0.00012277,0.0,0 STARLINK-5399,1 54788U 22175AG  23086.64739103  .00012277  00000-0  78705-3 0  9990,2 54788  53.2183 188.5047 0001576  98.8762 261.2408 15.08890737 15229,6917.725,95.434,540.681,538.5,0.0
